0 COSMOS 1023
1 10961U 78063A   13282.45524425  .00000152  00000-0  61002-4 0  6312
2 10961 074.0755 302.6341 0016740 204.8208 260.3073 14.36047496847787
0 COSMOS 1023
1 10961U 78063A   13283.51103458  .00000139  00000-0  56733-4 0  6320
2 10961 074.0754 300.7003 0016707 202.5744 318.5456 14.36047856847931
0 COSMOS 1023
1 10961U 78063A   13286.13915411  .00000105  00000-0  45130-4 0  6345
2 10961 074.0751 295.8865 0016590 197.2122 225.2076 14.36048624848317
0 COSMOS 1023
1 10961U 78063A   13287.18599623  .00000103  00000-0  44206-4 0  6356
2 10961 074.0751 293.9689 0016534 195.0473 237.1274 14.36048881848466
0 COSMOS 1023
1 10961U 78063A   13288.51835510  .00000133  00000-0  54718-4 0  6365
2 10961 074.0753 291.5284 0016433 192.2702 285.1222 14.36049713848657
0 COSMOS 1023
1 10961U 78063A   13289.56735517  .00000121  00000-0  50344-4 0  6376
2 10961 074.0754 289.6068 0016386 190.0726 308.2314 14.36050121848806
0 COSMOS 1023
1 10961U 78063A   13291.15215860  .00000127  00000-0  52361-4 0  6386
2 10961 074.0756 286.7037 0016333 186.7457 221.3408 14.36050367849034
0 COSMOS 1023
1 10961U 78063A   13292.49550494  .00000146  00000-0  59054-4 0  6397
2 10961 074.0758 284.2432 0016291 183.9134 326.1790 14.36050815849229
0 COSMOS 1023
1 10961U 78063A   13293.53820411  .00000184  00000-0  72129-4 0  6404
2 10961 074.0760 282.3333 0016244 181.7438 316.7040 14.36051017849376
0 COSMOS 1023
1 10961U 78063A   13294.58409497  .00000212  00000-0  81714-4 0  6410
2 10961 074.0759 280.4177 0016202 179.5483 323.7497 14.36051354849523
0 COSMOS 1023
1 10961U 78063A   13296.17476436  .00000187  00000-0  73150-4 0  6421
2 10961 074.0760 277.5043 0016144 176.1682 267.2320 14.36052276849759
